DELTA 2 R/B(1)          
1 20453U 90008B   26125.53429323  .00070335  00000+0  64539-3 0  9995
2 20453  35.5999 159.6937 0071021  73.0056 287.8450 15.63260771935018
COSMOS 2058             
1 20465U 90010A   26125.84346169  .00003677  00000+0  21366-3 0  9997
2 20465  82.4673 351.1115 0011032 129.1608 231.0604 15.11763508950872
SL-14 R/B               
1 20466U 90010B   26125.74579834  .00000418  00000+0  47583-4 0  9994
2 20466  82.5044 213.7971 0021277 110.5793 249.7708 14.83620665936947
SL-14 R/B               
1 20511U 90018B   26125.48077428  .00000326  00000+0  37953-4 0  9994
2 20511  82.5219 170.0254 0014699 264.3527  95.6011 14.82190720930991
HST                     
1 20580U 90037B   26125.75937281  .00007761  00000+0  24956-3 0  9991
2 20580  28.4765  10.4384 0002067  37.9111 322.1631 15.30294163782061
SL-16 R/B               
1 20625U 90046B   26125.67469376  .00000277  00000+0  16763-3 0  9999
2 20625  70.9988 178.2331 0015694 224.1104 135.8768 14.15021120856455
COSMOS 2084             
1 20663U 90055A   26125.36749587  .00002237  00000+0  16662-3 0  9998
2 20663  62.7881 142.2194 0008337 217.8422 142.2093 15.05945423944850
SL-6 R/B(2)             
1 20666U 90055D   26125.82771416  .00002486  00000+0  19219-3 0  9995
2 20666  62.7838  59.5022 0033940 358.7072   1.3934 15.03852521946786
SL-8 R/B                
1 20775U 90078B   26125.46115064  .00031906  00000+0  92210-3 0  9993
2 20775  82.9042 200.1972 0355332 182.2317 177.7344 14.90861637817750
SL-8 R/B                
1 21088U 91006B   26125.50892153  .00000079  00000+0  64400-4 0  9997
2 21088  82.9395 127.7863 0021195 233.8838 238.4878 13.77506533771896
OKEAN-3                 
1 21397U 91039A   26125.85907704  .00002957  00000+0  20529-3 0  9993
2 21397  82.5155 281.4239 0015219 133.5724 226.6769 15.05126832873630
COSMOS 2151             
1 21422U 91042A   26125.91054527  .00001354  00000+0  10577-3 0  9991
2 21422  82.4988  28.4740 0011085 220.7287 139.3109 15.00327725871778
SL-14 R/B               
1 21423U 91042B   26125.68097882  .00000327  00000+0  38224-4 0  9996
2 21423  82.4933 166.7571 0018298  57.0153 303.2817 14.81876504861514
ERS-1                   
1 21574U 91050A   26125.48688290  .00000308  00000+0  11296-3 0  9997
2 21574  98.7825 145.1375 0032558  35.6980 324.6376 14.39490617823907
ARIANE 40 R/B           
1 21610U 91050F   26125.74960562  .00000287  00000+0  98444-4 0  9999
2 21610  98.1908 175.8126 0001821 250.7106 109.3888 14.42931933827227
INTERCOSMOS 25          
1 21819U 91086A   26125.85608954  .00000695  00000+0  13438-3 0  9997
2 21819  82.6009 275.4275 1485505 353.7155   4.6942 12.12146515503615
SL-8 R/B                
1 21876U 92008B   26125.81688788  .00000089  00000+0  76345-4 0  9998
2 21876  82.9287 225.2859 0033925 337.2036 144.4901 13.75971938717271
SL-8 R/B                
1 21938U 92020B   26125.58993280 -.00000021  00000+0 -38066-4 0  9997
2 21938  82.9271 111.4981 0029998 136.8169   1.7205 13.75547695708956
USA 81                  
1 21949U 92023A   26125.45277275  .00000185  00000+0  61107-4 0  9998
2 21949  85.0046  98.6712 0001681 111.2946 248.8426 14.32385800102914
COSMOS 2219             
1 22219U 92076A   26125.88953548  .00000157  00000+0  10674-3 0  9999
2 22219  71.0611 258.4912 0016147 115.5556 244.7238 14.14102634726463
SL-16 R/B               
1 22220U 92076B   26125.62165912  .00000272  00000+0  15938-3 0  9999
2 22220  71.0003  68.4460 0012677 358.2207 174.4469 14.16867850729895
COSMOS 2221             
1 22236U 92080A   26125.74638582  .00001804  00000+0  15659-3 0  9994
2 22236  82.5055 224.4175 0014151   7.2163 352.9259 14.96426481789327
SL-16 R/B               
1 22285U 92093B   26125.77007225 -.00000043  00000+0  23160-5 0  9992
2 22285  71.0224 244.4348 0006040 237.6539 122.3999 14.15461824721237
COSMOS 2228             
1 22286U 92094A   26125.92473815  .00001679  00000+0  14147-3 0  9991
2 22286  82.5191 182.5177 0019517 108.3606 251.9742 14.97447930784621
SL-16 R/B               
1 22566U 93016B   26125.60427629  .00000016  00000+0  32962-4 0  9994
2 22566  71.0043  95.6445 0012238 242.0102 117.9783 14.15307427710220
COSMOS 2242             
1 22626U 93024A   26125.73156804  .00001933  00000+0  16617-3 0  9995
2 22626  82.5207 212.1521 0017756 112.3684 247.9422 14.96784587788922
SL-16 R/B               
1 22803U 93059B   26125.78867031 -.00000011  00000+0  18340-4 0  9999
2 22803  70.9906 250.7123 0015310 127.9857 232.2652 14.17242780687624
ARIANE 40 R/B           
1 22830U 93061H   26125.74956342  .00000209  00000+0  92258-4 0  9990
2 22830  98.4833 193.4841 0011916 113.5767 246.6671 14.32889519702270
COSMOS 2278             
1 23087U 94023A   26125.81303336 -.00000089  00000+0 -21557-4 0  9993
2 23087  71.0552  55.5825 0011060 295.1005  64.8969 14.14389325652883
SL-16 R/B               
1 23088U 94023B   26125.76310957  .00000306  00000+0  18257-3 0  9997
2 23088  70.9998 311.0277 0004745 231.6413 128.4284 14.15019246654160
SL-16 R/B               
1 23343U 94074B   26125.54976514  .00000422  00000+0  63061-4 0  9993
2 23343  97.7024 154.0416 0007563  45.9958  73.4812 14.79466120695654
SL-16 R/B               
1 23405U 94077B   26125.86375902 -.00000249  00000+0 -10270-3 0  9996
2 23405  70.9832 232.2016 0000567  17.9444 342.1699 14.15570991624321
ARIANE 40+ R/B          
1 23561U 95021B   26125.81396117  .00000263  00000+0  97740-4 0  9997
2 23561  98.4421 196.4977 0006098 340.9218 139.9404 14.39809865627468
SL-16 R/B               
1 23705U 95058B   26125.80285950 -.00000111  00000+0 -32331-4 0  9997
2 23705  71.0216  60.3448 0011483  23.1347 337.0291 14.15501982575938
SL-16 R/B               
1 24298U 96051B   26125.82264198  .00000116  00000+0  89401-4 0  9995
2 24298  70.7624  54.3103 0012647  47.6997 312.5192 14.12431036529713
ORBVIEW 2 (SEASTAR)     
1 24883U 97037A   26125.92130195  .00000236  00000+0  98108-4 0  9997
2 24883  98.8654 291.7771 0001235 231.9080 128.1993 14.35531426516688
SL-16 R/B               
1 25400U 98043G   26125.84433179  .00000052  00000+0  40727-4 0  9990
2 25400  98.8338  79.6466 0009321 203.1205 156.9556 14.26061776447134
SL-16 R/B               
1 25407U 98045B   26125.57385825  .00000293  00000+0  17181-3 0  9997
2 25407  71.0117  61.9455 0009407 291.8496  68.1626 14.16198642435155
ISS (ZARYA)             
1 25544U 98067A   26125.87701393  .00006839  00000+0  13163-3 0  9996
2 25544  51.6305 149.5338 0007380  27.3797 332.7579 15.49110216565190
CZ-4B R/B               
1 25732U 99025C   26125.74882499  .00000056  00000+0  47916-4 0  9992
2 25732  98.6520 168.6478 0037164 179.0254 292.7932 14.18276044396256
OKEAN-O                 
1 25860U 99039A   26125.76671447  .00000586  00000+0  83575-4 0  9999
2 25860  97.9342 185.0460 0001790 107.7282 252.4125 14.80416218442832
SL-16 R/B               
1 25861U 99039B   26125.76060552  .00000538  00000+0  74844-4 0  9995
2 25861  97.9865 184.7389 0016119  74.1167 286.1821 14.81802631445311
DELTA 2 R/B             
1 25876U 99041E   26125.56644724  .00000432  00000+0  10871-3 0  9993
2 25876  51.7616  74.0553 0502218 156.1531 206.3568 14.11944616371064
HELIOS 1B               
1 25977U 99064A   26125.74533056  .00001529  00000+0  17344-3 0  9995
2 25977  98.1642  29.6540 0000743 133.6289 226.4988 14.87894018693742
TERRA                   
1 25994U 99068A   26125.89863012  .00000381  00000+0  86614-4 0  9994
2 25994  97.9489 177.1147 0002640  35.5471  16.6080 14.61069417403436
SL-16 R/B               
1 26070U 00006B   26125.81600636 -.00000060  00000+0 -63979-5 0  9993
2 26070  71.0036 337.7201 0014271  95.2237 265.0515 14.15834849356645
TITAN 4B R/B            
1 26474U 00047B   26125.86825161  .00002921  00000+0  18396-3 0  9990
2 26474  67.9894 239.6666 0043364 330.6753  29.1963 15.09979137401548
ENVISAT                 
1 27386U 02009A   26125.82550821  .00000102  00000+0  46917-4 0  9997
2 27386  98.3809  78.0959 0001160  90.2014 277.6421 14.39054714267391
IDEFIX & ARIANE 42P R/B 
1 27422U 02021B   26125.82941929  .00000254  00000+0  11297-3 0  9995
2 27422  98.5927  63.7763 0012373  24.5852 335.5919 14.31061648252191
AQUA                    
1 27424U 02022A   26125.89215863  .00000830  00000+0  17507-3 0  9996
2 27424  98.4254  94.3394 0002132  85.4503 301.0111 14.62092706277097
CZ-4B R/B               
1 27432U 02024C   26125.74015023  .00000030  00000+0  38637-4 0  9997
2 27432  98.8731 178.8280 0049489 219.9773 253.1683 14.14557419237306
MIDORI II (ADEOS-II)    
1 27597U 02056A   26125.78672632  .00000283  00000+0  12882-3 0  9996
2 27597  98.7853  84.6942 0001302 133.3111 226.8179 14.29325415218455
H-2A R/B                
1 27601U 02056E   26125.92893859  .00000313  00000+0  12424-3 0  9990
2 27601  98.3288  84.1506 0070071 352.1932  54.1471 14.33801072222311
CZ-4B R/B               
1 28059U 03049C   26125.94119786  .00000372  00000+0  96586-4 0  9990
2 28059  98.6899 123.1089 0049166  57.7905 302.8044 14.55069247194927
CZ-2C R/B               
1 28222U 04012C   26125.72253666  .00081338  00000+0  61780-3 0  9993
2 28222  97.7109 196.7036 0012384 102.5783 257.6865 15.71972961213213
SL-16 R/B               
1 28353U 04021B   26125.94621348 -.00000100  00000+0 -27085-4 0  9999
2 28353  70.9978 112.3366 0006875 298.7849  61.2583 14.14601598130938
CZ-4B R/B               
1 28415U 04035C   26125.69484114  .00009248  00000+0  31595-3 0  9993
2 28415  97.3399 159.2614 0033010 124.7209 235.7148 15.29982591188628
CZ-2C R/B               
1 28480U 04046B   26125.77119857  .00000163  00000+0  76016-4 0  9990
2 28480  98.1965  37.1969 0139151 346.6181  13.1325 14.27014625116641
ARIANE 5 R/B            
1 28499U 04049H   26125.48995341  .00001098  00000+0  12673-3 0  9997
2 28499  98.2697 296.1024 0084343 166.1623 194.1930 14.85377558154220
